CCSDS_OMM_VERS = 2.0
CREATION_DATE  = 
ORIGINATOR     = 

OBJECT_NAME    = STARLINK-36441
OBJECT_ID      = 2026-008AA
CENTER_NAME    = EARTH
REF_FRAME      = TEME
TIME_SYSTEM    = UTC
MEAN_ELEMENT_THEORY = SGP/SGP4

EPOCH          = 2026-02-13T06:00:02.000160
MEAN_MOTION    = 15.36547093
ECCENTRICITY   = .00008952
INCLINATION    = 43.0004
RA_OF_ASC_NODE = 343.6340
ARG_OF_PERICENTER = 290.4704
MEAN_ANOMALY   = 298.2752

EPHEMERIS_TYPE = 0
CLASSIFICATION_TYPE = U
NORAD_CAT_ID   = 67469
ELEMENT_SET_NO = 999
REV_AT_EPOCH   = 587
BSTAR          = -.59757062E-1
MEAN_MOTION_DOT = -.1944295E-1
MEAN_MOTION_DDOT = 0

CCSDS_OMM_VERS = 2.0
CREATION_DATE  = 
ORIGINATOR     = 

OBJECT_NAME    = STARLINK-36454
OBJECT_ID      = 2026-008AB
CENTER_NAME    = EARTH
REF_FRAME      = TEME
TIME_SYSTEM    = UTC
MEAN_ELEMENT_THEORY = SGP/SGP4

EPOCH          = 2026-02-13T06:00:02.000160
MEAN_MOTION    = 15.45698410
ECCENTRICITY   = .00011883
INCLINATION    = 43.0000
RA_OF_ASC_NODE = 343.3773
ARG_OF_PERICENTER = 253.1333
MEAN_ANOMALY   = 79.9182

EPHEMERIS_TYPE = 0
CLASSIFICATION_TYPE = U
NORAD_CAT_ID   = 67470
ELEMENT_SET_NO = 999
REV_AT_EPOCH   = 587
BSTAR          = -.45572485E-1
MEAN_MOTION_DOT = -.2009047E-1
MEAN_MOTION_DDOT = 0

CCSDS_OMM_VERS = 2.0
CREATION_DATE  = 
ORIGINATOR     = 

OBJECT_NAME    = STARLINK-36334
OBJECT_ID      = 2026-008AC
CENTER_NAME    = EARTH
REF_FRAME      = TEME
TIME_SYSTEM    = UTC
MEAN_ELEMENT_THEORY = SGP/SGP4

EPOCH          = 2026-02-13T06:00:02.000160
MEAN_MOTION    = 15.28358618
ECCENTRICITY   = .00010738
INCLINATION    = 43.0001
RA_OF_ASC_NODE = 343.7037
ARG_OF_PERICENTER = 270.1350
MEAN_ANOMALY   = 287.1841

EPHEMERIS_TYPE = 0
CLASSIFICATION_TYPE = U
NORAD_CAT_ID   = 67471
ELEMENT_SET_NO = 999
REV_AT_EPOCH   = 587
BSTAR          = .29924145E-2
MEAN_MOTION_DOT = .8504E-3
MEAN_MOTION_DDOT = 0

CCSDS_OMM_VERS = 2.0
CREATION_DATE  = 
ORIGINATOR     = 

OBJECT_NAME    = STARLINK-36269
OBJECT_ID      = 2026-008AD
CENTER_NAME    = EARTH
REF_FRAME      = TEME
TIME_SYSTEM    = UTC
MEAN_ELEMENT_THEORY = SGP/SGP4

EPOCH          = 2026-02-13T06:00:02.000160
MEAN_MOTION    = 15.34072959
ECCENTRICITY   = .00010023
INCLINATION    = 42.9998
RA_OF_ASC_NODE = 343.5377
ARG_OF_PERICENTER = 277.6104
MEAN_ANOMALY   = 348.9786

EPHEMERIS_TYPE = 0
CLASSIFICATION_TYPE = U
NORAD_CAT_ID   = 67472
ELEMENT_SET_NO = 999
REV_AT_EPOCH   = 589
BSTAR          = -.64233079E-1
MEAN_MOTION_DOT = -.1930952E-1
MEAN_MOTION_DDOT = 0

CCSDS_OMM_VERS = 2.0
CREATION_DATE  = 
ORIGINATOR     = 

OBJECT_NAME    = STARLINK-36408
OBJECT_ID      = 2026-008AE
CENTER_NAME    = EARTH
REF_FRAME      = TEME
TIME_SYSTEM    = UTC
MEAN_ELEMENT_THEORY = SGP/SGP4

EPOCH          = 2026-02-13T06:00:02.000160
MEAN_MOTION    = 15.39986000
ECCENTRICITY   = .00008923
INCLINATION    = 43.0002
RA_OF_ASC_NODE = 343.4967
ARG_OF_PERICENTER = 271.1422
MEAN_ANOMALY   = 13.0307

EPHEMERIS_TYPE = 0
CLASSIFICATION_TYPE = U
NORAD_CAT_ID   = 67473
ELEMENT_SET_NO = 999
REV_AT_EPOCH   = 589
BSTAR          = -.5352683E-1
MEAN_MOTION_DOT = -.1949924E-1
MEAN_MOTION_DDOT = 0

CCSDS_OMM_VERS = 2.0
CREATION_DATE  = 
ORIGINATOR     = 

OBJECT_NAME    = ALSAT-3A
OBJECT_ID      = 2026-009A
CENTER_NAME    = EARTH
REF_FRAME      = TEME
TIME_SYSTEM    = UTC
MEAN_ELEMENT_THEORY = SGP/SGP4

EPOCH          = 2026-02-13T05:52:52.340736
MEAN_MOTION    = 15.23518890
ECCENTRICITY   = .00128504
INCLINATION    = 97.4675
RA_OF_ASC_NODE = 118.8823
ARG_OF_PERICENTER = 154.7075
MEAN_ANOMALY   = 205.4794

EPHEMERIS_TYPE = 0
CLASSIFICATION_TYPE = U
NORAD_CAT_ID   = 67474
ELEMENT_SET_NO = 999
REV_AT_EPOCH   = 440
BSTAR          = .28940679E-3
MEAN_MOTION_DOT = .6855E-4
MEAN_MOTION_DDOT = 0

CCSDS_OMM_VERS = 2.0
CREATION_DATE  = 
ORIGINATOR     = 

OBJECT_NAME    = CZ-2C R/B
OBJECT_ID      = 2026-009B
CENTER_NAME    = EARTH
REF_FRAME      = TEME
TIME_SYSTEM    = UTC
MEAN_ELEMENT_THEORY = SGP/SGP4

EPOCH          = 2026-02-13T05:43:29.204544
MEAN_MOTION    = 15.03157055
ECCENTRICITY   = .01003596
INCLINATION    = 97.1737
RA_OF_ASC_NODE = 116.5867
ARG_OF_PERICENTER = 123.1314
MEAN_ANOMALY   = 237.9592

EPHEMERIS_TYPE = 0
CLASSIFICATION_TYPE = U
NORAD_CAT_ID   = 67475
ELEMENT_SET_NO = 999
REV_AT_EPOCH   = 440
BSTAR          = .19714011E-3
MEAN_MOTION_DOT = .2914E-4
MEAN_MOTION_DDOT = 0

CCSDS_OMM_VERS = 2.0
CREATION_DATE  = 
ORIGINATOR     = 

OBJECT_NAME    = TIANQI-37
OBJECT_ID      = 2026-010A
CENTER_NAME    = EARTH
REF_FRAME      = TEME
TIME_SYSTEM    = UTC
MEAN_ELEMENT_THEORY = SGP/SGP4

EPOCH          = 2026-02-08T06:39:39.190752
MEAN_MOTION    = 14.13528441
ECCENTRICITY   = .0012909
INCLINATION    = 44.9825
RA_OF_ASC_NODE = 296.6529
ARG_OF_PERICENTER = 70.2546
MEAN_ANOMALY   = 289.9683

EPHEMERIS_TYPE = 0
CLASSIFICATION_TYPE = U
NORAD_CAT_ID   = 67476
ELEMENT_SET_NO = 999
REV_AT_EPOCH   = 332
BSTAR          = .15719E-3
MEAN_MOTION_DOT = .165E-5
MEAN_MOTION_DDOT = 0

CCSDS_OMM_VERS = 2.0
CREATION_DATE  = 
ORIGINATOR     = 

OBJECT_NAME    = TIANQI-38
OBJECT_ID      = 2026-010B
CENTER_NAME    = EARTH
REF_FRAME      = TEME
TIME_SYSTEM    = UTC
MEAN_ELEMENT_THEORY = SGP/SGP4

EPOCH          = 2026-02-08T06:33:16.657344
MEAN_MOTION    = 14.13905796
ECCENTRICITY   = .0011754
INCLINATION    = 44.9788
RA_OF_ASC_NODE = 296.6199
ARG_OF_PERICENTER = 75.6443
MEAN_ANOMALY   = 284.5700

EPHEMERIS_TYPE = 0
CLASSIFICATION_TYPE = U
NORAD_CAT_ID   = 67477
ELEMENT_SET_NO = 999
REV_AT_EPOCH   = 332
BSTAR          = .17865E-3
MEAN_MOTION_DOT = .208E-5
MEAN_MOTION_DDOT = 0

CCSDS_OMM_VERS = 2.0
CREATION_DATE  = 
ORIGINATOR     = 

OBJECT_NAME    = TIANQI-39
OBJECT_ID      = 2026-010C
CENTER_NAME    = EARTH
REF_FRAME      = TEME
TIME_SYSTEM    = UTC
MEAN_ELEMENT_THEORY = SGP/SGP4

EPOCH          = 2026-02-08T06:41:10.923360
MEAN_MOTION    = 14.13055169
ECCENTRICITY   = .0016488
INCLINATION    = 44.9839
RA_OF_ASC_NODE = 296.6613
ARG_OF_PERICENTER = 82.3005
MEAN_ANOMALY   = 277.9705

EPHEMERIS_TYPE = 0
CLASSIFICATION_TYPE = U
NORAD_CAT_ID   = 67478
ELEMENT_SET_NO = 999
REV_AT_EPOCH   = 332
BSTAR          = .15988E-3
MEAN_MOTION_DOT = .167E-5
MEAN_MOTION_DDOT = 0

CCSDS_OMM_VERS = 2.0
CREATION_DATE  = 
ORIGINATOR     = 

OBJECT_NAME    = TIANQI-40
OBJECT_ID      = 2026-010D
CENTER_NAME    = EARTH
REF_FRAME      = TEME
TIME_SYSTEM    = UTC
MEAN_ELEMENT_THEORY = SGP/SGP4

EPOCH          = 2026-02-09T04:36:40.071744
MEAN_MOTION    = 14.13182235
ECCENTRICITY   = .0011741
INCLINATION    = 44.9786
RA_OF_ASC_NODE = 292.4342
ARG_OF_PERICENTER = 80.4003
MEAN_ANOMALY   = 279.8161

EPHEMERIS_TYPE = 0
CLASSIFICATION_TYPE = U
NORAD_CAT_ID   = 67479
ELEMENT_SET_NO = 999
REV_AT_EPOCH   = 345
BSTAR          = .15351E-3
MEAN_MOTION_DOT = .156E-5
MEAN_MOTION_DDOT = 0

CCSDS_OMM_VERS = 2.0
CREATION_DATE  = 
ORIGINATOR     = 

OBJECT_NAME    = SZ-20 MODULE
OBJECT_ID      = 2025-082C
CENTER_NAME    = EARTH
REF_FRAME      = TEME
TIME_SYSTEM    = UTC
MEAN_ELEMENT_THEORY = SGP/SGP4

EPOCH          = 2026-02-13T05:29:15.448128
MEAN_MOTION    = 15.62761693
ECCENTRICITY   = .00075746
INCLINATION    = 41.4801
RA_OF_ASC_NODE = 356.4197
ARG_OF_PERICENTER = 170.9551
MEAN_ANOMALY   = 189.1426

EPHEMERIS_TYPE = 0
CLASSIFICATION_TYPE = U
NORAD_CAT_ID   = 67481
ELEMENT_SET_NO = 999
REV_AT_EPOCH   = 27379
BSTAR          = .26559297E-3
MEAN_MOTION_DOT = .2434E-3
MEAN_MOTION_DDOT = 0

