STARLINK-36441          
1 67469U 26008AA  26044.25002315 -.01944295  00000+0 -59757-1 0  9991
2 67469  43.0004 343.6340 0000895 290.4704 298.2752 15.36547093  5874
STARLINK-36454          
1 67470U 26008AB  26044.25002315 -.02009047  00000+0 -45572-1 0  9991
2 67470  43.0000 343.3773 0001188 253.1333  79.9182 15.45698410  5870
STARLINK-36334          
1 67471U 26008AC  26044.25002315  .00085040  00000+0  29924-2 0  9999
2 67471  43.0001 343.7037 0001073 270.1350 287.1841 15.28358618  5879
STARLINK-36269          
1 67472U 26008AD  26044.25002315 -.01930952  00000+0 -64233-1 0  9995
2 67472  42.9998 343.5377 0001002 277.6104 348.9786 15.34072959  5893
STARLINK-36408          
1 67473U 26008AE  26044.25002315 -.01949924  00000+0 -53527-1 0  9999
2 67473  43.0002 343.4967 0000892 271.1422  13.0307 15.39986000  5899
ALSAT-3A                
1 67474U 26009A   26044.24505024  .00006855  00000+0  28941-3 0  9993
2 67474  97.4675 118.8823 0012850 154.7075 205.4794 15.23518890  4405
CZ-2C R/B               
1 67475U 26009B   26044.23853246  .00002914  00000+0  19714-3 0  9995
2 67475  97.1737 116.5867 0100359 123.1314 237.9592 15.03157055  4409
TIANQI-37               
1 67476U 26010A   26039.27753693  .00000165  00000+0  15719-3 0  9998
2 67476  44.9825 296.6529 0012909  70.2546 289.9683 14.13528441  3324
TIANQI-38               
1 67477U 26010B   26039.27310946  .00000208  00000+0  17865-3 0  9991
2 67477  44.9788 296.6199 0011754  75.6443 284.5700 14.13905796  3321
TIANQI-39               
1 67478U 26010C   26039.27859865  .00000167  00000+0  15988-3 0  9998
2 67478  44.9839 296.6613 0016488  82.3005 277.9705 14.13055169  3329
TIANQI-40               
1 67479U 26010D   26040.19213046  .00000156  00000+0  15351-3 0  9999
2 67479  44.9786 292.4342 0011741  80.4003 279.8161 14.13182235  3454
SZ-20 MODULE            
1 67481U 25082C   26044.22865102  .00024340  00000+0  26559-3 0  9997
2 67481  41.4801 356.4197 0007574 170.9551 189.1426 15.62761693273797
